$$SOE
2460154.500000000, A.D. 2023-Jul-29 00:00:00.0000, 3.955831973135687E+08, 5.793908976514076E+07, 6.011717475510330E+07,
2460161.500000000, A.D. 2023-Aug-05 00:00:00.0000, 3.941002216087207E+08, 6.935382961191201E+07, 6.018912305728776E+07,
2460168.500000000, A.D. 2023-Aug-12 00:00:00.0000, 3.923286278586782E+08, 8.071795532600838E+07, 6.021692889552157E+07,
2460175.500000000, A.D. 2023-Aug-19 00:00:00.0000, 3.902705442323430E+08, 9.202331547998953E+07, 6.020069725325325E+07,
2460182.500000000, A.D. 2023-Aug-26 00:00:00.0000, 3.879283607130011E+08, 1.032618632062841E+08, 6.014057455383345E+07,
2460189.500000000, A.D. 2023-Sep-02 00:00:00.0000, 3.853047228839254E+08, 1.144256664608771E+08, 6.003674801661988E+07,
2460196.500000000, A.D. 2023-Sep-09 00:00:00.0000, 3.824025252615012E+08, 1.255069177497002E+08, 5.988944492371730E+07,
2460203.500000000, A.D. 2023-Sep-16 00:00:00.0000, 3.792249043779509E+08, 1.364979432336274E+08, 5.969893178146132E+07,
2460210.500000000, A.D. 2023-Sep-23 00:00:00.0000, 3.757752320633644E+08, 1.473912114740464E+08, 5.946551336547547E+07,
2460217.500000000, A.D. 2023-Sep-30 00:00:00.0000, 3.720571086175405E+08, 1.581793429880833E+08, 5.918953178032403E+07,
2460224.500000000, A.D. 2023-Oct-07 00:00:00.0000, 3.680743535487118E+08, 1.688551200570554E+08, 5.887136570924623E+07,
2460231.500000000, A.D. 2023-Oct-14 00:00:00.0000, 3.638309949575321E+08, 1.794114934657298E+08, 5.851142949421636E+07,
2460238.500000000, A.D. 2023-Oct-21 00:00:00.0000, 3.593312608334830E+08, 1.898415877648711E+08, 5.811017188684586E+07,
2460245.500000000, A.D. 2023-Oct-28 00:00:00.0000, 3.545795708752353E+08, 2.001387073100271E+08, 5.766807479082476E+07,
2460252.500000000, A.D. 2023-Nov-04 00:00:00.0000, 3.495805276218435E+08, 2.102963423024811E+08, 5.718565205344112E+07,
2460259.500000000, A.D. 2023-Nov-11 00:00:00.0000, 3.443389071091357E+08, 2.203081742311276E+08, 5.666344824652308E+07,
2460266.500000000, A.D. 2023-Nov-18 00:00:00.0000, 3.388596493064938E+08, 2.301680806522569E+08, 5.610203741680692E+07,
2460273.500000000, A.D. 2023-Nov-25 00:00:00.0000, 3.331478484416392E+08, 2.398701393338492E+08, 5.550202180622399E+07,
2460280.500000000, A.D. 2023-Dec-02 00:00:00.0000, 3.272087432756370E+08, 2.494086317596360E+08, 5.486403054388578E+07,
2460287.500000000, A.D. 2023-Dec-09 00:00:00.0000, 3.210477074390700E+08, 2.587780459426465E+08, 5.418871830296317E+07,
2460294.500000000, A.D. 2023-Dec-16 00:00:00.0000, 3.146702401492524E+08, 2.679730785713961E+08, 5.347676390205269E+07,
2460301.500000000, A.D. 2023-Dec-23 00:00:00.0000, 3.080819576881157E+08, 2.769886371874501E+08, 5.272886887958929E+07,
2460308.500000000, A.D. 2023-Dec-30 00:00:00.0000, 3.012885843273923E+08, 2.858198434546327E+08, 5.194575625321496E+07,
2460315.500000000, A.D. 2024-Jan-06 00:00:00.0000, 2.942959409520040E+08, 2.944620351750550E+08, 5.112816943753247E+07,
2460322.500000000, A.D. 2024-Jan-13 00:00:00.0000, 2.871099345818471E+08, 3.029107652650995E+08, 5.027687088635391E+07,
2460329.500000000, A.D. 2024-Jan-20 00:00:00.0000, 2.797365500410007E+08, 3.111618007925420E+08, 4.939264060251583E+07,
2460336.500000000, A.D. 2024-Jan-27 00:00:00.0000, 2.721818417655634E+08, 3.192111227441200E+08, 4.847627475727372E+07,
2460343.500000000, A.D. 2024-Feb-03 00:00:00.0000, 2.644519253404214E+08, 3.270549255946252E+08, 4.752858438407220E+07,
2460350.500000000, A.D. 2024-Feb-10 00:00:00.0000, 2.565529690600690E+08, 3.346896164070235E+08, 4.655039410045148E+07,
2460357.500000000, A.D. 2024-Feb-17 00:00:00.0000, 2.484911856682441E+08, 3.421118134924566E+08, 4.554254084880604E+07,
2460364.500000000, A.D. 2024-Feb-24 00:00:00.0000, 2.402728243264887E+08, 3.493183446660905E+08, 4.450587265649135E+07,
2460371.500000000, A.D. 2024-Mar-02 00:00:00.0000, 2.319041628532558E+08, 3.563062450876840E+08, 4.344124741234477E+07,
2460378.500000000, A.D. 2024-Mar-09 00:00:00.0000, 2.233915003828394E+08, 3.630727546457180E+08, 4.234953164402649E+07,
2460385.500000000, A.D. 2024-Mar-16 00:00:00.0000, 2.147411508485813E+08, 3.696153151045520E+08, 4.123159927821583E+07,
2460392.500000000, A.D. 2024-Mar-23 00:00:00.0000, 2.059594371952423E+08, 3.759315681451238E+08, 4.008833048558019E+07,
2460399.500000000, A.D. 2024-Mar-30 00:00:00.0000, 1.970526840845870E+08, 3.820193542905901E+08, 3.892061081491598E+07,
2460406.500000000, A.D. 2024-Apr-06 00:00:00.0000, 1.880272093509141E+08, 3.878767093694391E+08, 3.772933031924602E+07,
2460413.500000000, A.D. 2024-Apr-13 00:00:00.0000, 1.788893177611662E+08, 3.935018593767798E+08, 3.651538241847777E+07,
2460420.500000000, A.D. 2024-Apr-20 00:00:00.0000, 1.696452961308403E+08, 3.988932164302918E+08, 3.527966280553243E+07,
2460427.500000000, A.D. 2024-Apr-27 00:00:00.0000, 1.603014082779654E+08, 4.040493752772828E+08, 3.402306848973534E+07,
2460434.500000000, A.D. 2024-May-04 00:00:00.0000, 1.508638899010704E+08, 4.089691096683034E+08, 3.274649691259342E+07,
2460441.500000000, A.D. 2024-May-11 00:00:00.0000, 1.413389436171122E+08, 4.136513685143660E+08, 3.145084510634285E+07,
2460448.500000000, A.D. 2024-May-18 00:00:00.0000, 1.317327342384188E+08, 4.180952718675092E+08, 3.013700888986328E+07,
2460455.500000000, A.D. 2024-May-25 00:00:00.0000, 1.220513843098607E+08, 4.223001067345474E+08, 2.880588209919968E+07,
2460462.500000000, A.D. 2024-Jun-01 00:00:00.0000, 1.123009699618441E+08, 4.262653226819028E+08, 2.745835584231728E+07,
2460469.500000000, A.D. 2024-Jun-08 00:00:00.0000, 1.024875173199865E+08, 4.299905272222095E+08, 2.609531775320080E+07,
2460476.500000000, A.D. 2024-Jun-15 00:00:00.0000, 9.261699986399098E+07, 4.334754815407354E+08, 2.471765125273699E+07,
2460483.500000000, A.D. 2024-Jun-22 00:00:00.0000, 8.269533572298597E+07, 4.367200977494647E+08, 2.332623500413573E+07,
2460490.500000000, A.D. 2024-Jun-29 00:00:00.0000, 7.272838277687533E+07, 4.397244358583100E+08, 2.192194260822287E+07,
2460497.500000000, A.D. 2024-Jul-06 00:00:00.0000, 6.272193419720444E+07, 4.424886980048835E+08, 2.050564209415957E+07,
2460504.500000000, A.D. 2024-Jul-13 00:00:00.0000, 5.268171636891281E+07, 4.450132227839684E+08, 1.907819525751311E+07,
2460511.500000000, A.D. 2024-Jul-20 00:00:00.0000, 4.261338720207664E+07, 4.472984808377568E+08, 1.764045712070274E+07,
2460518.500000000, A.D. 2024-Jul-27 00:00:00.0000, 3.252253417053021E+07, 4.493450707558846E+08, 1.619327549631453E+07,
2460525.500000000, A.D. 2024-Aug-03 00:00:00.0000, 2.241467234206570E+07, 4.511537149181708E+08, 1.473749059628025E+07,
2460532.500000000, A.D. 2024-Aug-10 00:00:00.0000, 1.229524255738837E+07, 4.527252552829651E+08, 1.327393466994008E+07,
2460539.500000000, A.D. 2024-Aug-17 00:00:00.0000, 2.169609796346893E+06, 4.540606491496570E+08, 1.180343166697532E+07,
2460546.500000000, A.D. 2024-Aug-24 00:00:00.0000, -7.956938249622517E+06, 4.551609648793808E+08, 1.032679691937360E+07,
2460553.500000000, A.D. 2024-Aug-31 00:00:00.0000, -1.807919229213259E+07, 4.560273775181777E+08, 8.844836825341195E+06,
2460560.500000000, A.D. 2024-Sep-07 00:00:00.0000, -2.819202189106096E+07, 4.566611644543462E+08, 7.358348510533422E+06,
2460567.500000000, A.D. 2024-Sep-14 00:00:00.0000, -3.829037515397634E+07, 4.570637021114614E+08, 5.868119538722247E+06,
2460574.500000000, A.D. 2024-Sep-21 00:00:00.0000, -4.836927972607060E+07, 4.572364640948051E+08, 4.374927890133053E+06,
2460581.500000000, A.D. 2024-Sep-28 00:00:00.0000, -5.842384556506366E+07, 4.571810175647170E+08, 2.879541987006277E+06,
2460588.500000000, A.D. 2024-Oct-05 00:00:00.0000, -6.844926584134383E+07, 4.568990178398777E+08, 1.382720428926080E+06,
2460595.500000000, A.D. 2024-Oct-12 00:00:00.0000, -7.844081633271332E+07, 4.563922042158808E+08, -1.147882867527604E+05,
2460602.500000000, A.D. 2024-Oct-19 00:00:00.0000, -8.839385507107891E+07, 4.556623967311592E+08, -1.612245922264218E+06,
2460609.500000000, A.D. 2024-Oct-26 00:00:00.0000, -9.830382228043365E+07, 4.547114930797200E+08, -3.108924598215580E+06,
2460616.500000000, A.D. 2024-Nov-02 00:00:00.0000, -1.081662403560427E+08, 4.535414655232814E+08, -4.604106870547831E+06,
2460623.500000000, A.D. 2024-Nov-09 00:00:00.0000, -1.179767137951935E+08, 4.521543578245583E+08, -6.097085793839782E+06,
2460630.500000000, A.D. 2024-Nov-16 00:00:00.0000, -1.277309290602338E+08, 4.505522822027749E+08, -7.587164974269122E+06,
2460637.500000000, A.D. 2024-Nov-23 00:00:00.0000, -1.374246543333253E+08, 4.487374162619841E+08, -9.073658621529698E+06,
2460644.500000000, A.D. 2024-Nov-30 00:00:00.0000, -1.470537389607859E+08, 4.467119998496764E+08, -1.055589162315068E+07,
2460651.500000000, A.D. 2024-Dec-07 00:00:00.0000, -1.566141121737740E+08, 4.444783322662731E+08, -1.203319964612958E+07,
2460658.500000000, A.D. 2024-Dec-14 00:00:00.0000, -1.661017817801220E+08, 4.420387710500857E+08, -1.350492910357988E+07,
2460665.500000000, A.D. 2024-Dec-21 00:00:00.0000, -1.755128351504900E+08, 4.393957310976273E+08, -1.497043687607634E+07,
2460672.500000000, A.D. 2024-Dec-28 00:00:00.0000, -1.848434405297961E+08, 4.365516811492354E+08, -1.642909021156842E+07,
2460679.500000000, A.D. 2025-Jan-04 00:00:00.0000, -1.940898460827360E+08, 4.335091400135112E+08, -1.788026684821010E+07,
2460686.500000000, A.D. 2025-Jan-11 00:00:00.0000, -2.032483785002924E+08, 4.302706741909663E+08, -1.932335505820641E+07,
2460693.500000000, A.D. 2025-Jan-18 00:00:00.0000, -2.123154420876566E+08, 4.268388959772582E+08, -2.075775360428739E+07,
2460700.500000000, A.D. 2025-Jan-25 00:00:00.0000, -2.212875180936169E+08, 4.232164615691850E+08, -2.218287167030376E+07,
2460707.500000000, A.D. 2025-Feb-01 00:00:00.0000, -2.301611640956973E+08, 4.194060691410724E+08, -2.359812878613631E+07,
2460714.500000000, A.D. 2025-Feb-08 00:00:00.0000, -2.389330133861315E+08, 4.154104569090842E+08, -2.500295475100899E+07,
2460721.500000000, A.D. 2025-Feb-15 00:00:00.0000, -2.475997743329729E+08, 4.112324011609992E+08, -2.639678955974871E+07,
$$EOE